CCSDS_OEM_VERS = 2.0  
CREATION_DATE  = 2023-06-30T08:16:07
ORIGINATOR     = ESOC/OPS-GFA                            
 
 



META_START
OBJECT_NAME          = LISA                                    
OBJECT_ID            = -1000                                   
CENTER_NAME          = SUN                     
REF_FRAME            = EME2000 
TIME_SYSTEM          = TDB
START_TIME           = 2035-09-12T12:00:00.00000000            
STOP_TIME            = 2046-06-13T01:04:47.99999985            
INTERPOLATION        = HERMITE                                 
INTERPOLATION_DEGREE = 7                                       
META_STOP

2041-06-09T01:56:58.96103485   -80997898.009499  -114425400.052406   -50817857.163921  25.0672420 -14.9891506  -6.3800390     0.000003241879     0.000004579706     0.000002033917
2041-06-12T11:13:02.67240499   -73529633.025421  -118612261.678860   -52596349.983074  25.9720680 -13.6246437  -5.7745147     0.000002941869     0.000004745507     0.000002104313
2041-06-15T20:29:06.38377529   -65809634.060908  -122393056.705097   -54194779.590965  26.7876393 -12.2140405  -5.1494643     0.000002631906     0.000004894737     0.000002167363
2041-06-19T05:45:10.09514558   -57864424.096953  -125755016.132418   -55607751.073425  27.5112061 -10.7622642  -4.5070685     0.000002313104     0.000005026894     0.000002222855
2041-06-22T15:01:13.80651572   -49721282.331796  -128686830.550646   -56830515.594732  28.1403493  -9.2743749  -3.8495656     0.000001986608     0.000005141541     0.000002270608
2041-06-26T00:18:41.06075147   -41405750.976710  -131179337.926242   -57859252.728349  28.6731263  -7.7551136  -3.1790502     0.000001653489     0.000005238334     0.000002310478
2041-06-29T09:36:08.31498721   -32948648.915462  -133223351.411739   -58690172.114684  29.1076064  -6.2101815  -2.4980380     0.000001315030     0.000005316934     0.000002342327
2041-07-02T18:53:35.56922311   -24378954.014127  -134812141.719278   -59320547.048659  29.4424021  -4.6449391  -1.8088908     0.000000972431     0.000005377105     0.000002366060
2041-07-06T04:11:02.82345886   -15725998.715274  -135940556.100163   -59748345.083210  29.6764798  -3.0648054  -1.1139938     0.000000626908     0.000005418681     0.000002381615
2041-07-09T13:06:40.43298611    -7058404.880263  -136603098.418394   -59971688.050426  29.8087938  -1.4823650  -0.4188748     0.000000281231     0.000005441502     0.000002388941
2041-07-12T22:02:18.04251321     1633055.694178  -136803910.253908   -59992320.960527  29.8402985   0.1040205   0.2771921    -0.000000064937     0.000005445765     0.000002388124
2041-07-16T06:57:55.65204047    10319009.687302  -136542630.009332   -59810313.191148  29.7710249   1.6889481   0.9718375    -0.000000410401     0.000005431505     0.000002379188
2041-07-19T15:53:33.26156772    18970143.002328  -135820466.609372   -59426422.526580  29.6013515   3.2670350   1.6627030    -0.000000753974     0.000005398826     0.000002362188
2041-07-23T00:29:17.14329949    27522287.374286  -134645958.489368   -58844892.106334  29.3333066   4.8265531   2.3446604    -0.000001093093     0.000005348137     0.000002337323
2041-07-26T09:05:01.02503109    35982440.712743  -133021350.921052   -58066652.492727  28.9674478   6.3687642   3.0182673    -0.000001428029     0.000005279570     0.000002304648
2041-07-29T17:40:44.90676286    44322415.087079  -130952414.568592   -57094453.610103  28.5051522   7.8885210   3.6812768    -0.000001757660     0.000005193409     0.000002264297
2041-08-02T02:16:28.78849462    52514468.198858  -128446399.769269   -55931690.941409  27.9481182   9.3807677   4.3314844    -0.000002080892     0.000005090001     0.000002216432
2041-08-05T10:49:24.47847057    60526805.718451  -125513832.525490   -54583228.190297  27.2987617  10.8397212   4.9663723    -0.000002396475     0.000004969823     0.000002161269
2041-08-08T19:22:20.16844667    68337692.953683  -122163487.879408   -53053082.988161  26.5591005  12.2614408   5.5842277    -0.000002703565     0.000004833274     0.000002098993
2041-08-12T03:55:15.85842278    75921315.252750  -118406844.371060   -51346490.438729  25.7317427  13.6412521   6.1830205    -0.000003001165     0.000004680865     0.000002029833
2041-08-15T12:28:11.54839872    83252654.812761  -114256713.144508   -49469263.969830  24.8195807  14.9746357   6.7607909    -0.000003288315     0.000004513153     0.000001954042
2041-08-18T21:03:52.01680709    90311499.174322  -109724513.552187   -47426569.249949  23.8251919  16.2579544   7.3159636    -0.000003564248     0.000004330637     0.000001871844
2041-08-22T05:39:32.48521546    97070385.769659  -104827853.073069   -45226342.449873  22.7525016  17.4862615   7.8463991    -0.000003827921     0.000004134058     0.000001783574
2041-08-25T14:15:12.95362398   103507124.447651   -99583275.354759   -42876012.205530  21.6051886  18.6555766   8.3503804    -0.000004078503     0.000003924112     0.000001689542
2041-08-28T22:50:53.42203234   109600625.660639   -94008448.586939   -40383491.857808  20.3871659  19.7621266   8.8262826    -0.000004315212     0.000003701530     0.000001590076
2041-09-01T07:35:52.00074094   115341629.128619   -88110494.256290   -37751976.948750  19.1000337  20.8042912   9.2734077    -0.000004537727     0.000003466622     0.000001485313
2041-09-04T16:20:50.57944955   120699276.947829   -81919668.899479   -34994978.127750  17.7504317  21.7765345   9.6893789    -0.000004744894     0.000003220610     0.000001375799
2041-09-08T01:05:49.15815830   125656067.229749   -75456756.143461   -32121747.382952  16.3429143  22.6757499  10.0728689    -0.000004936082     0.000002964334     0.000001261907
2041-09-11T09:50:47.73686691   130195846.860553   -68743406.531514   -29141906.479889  14.8822119  23.4990790  10.4226608    -0.000005110715     0.000002698660     0.000001144021
2041-09-14T18:55:42.80514077   134319859.663312   -61773055.517312   -26052566.469468  13.3669101  24.2468189  10.7388739    -0.000005268885     0.000002423334     0.000001022030
2041-09-18T04:00:37.87341464   137995074.545983   -54596284.107387   -22876169.575942  11.8080098  24.9130530  11.0189984    -0.000005409369     0.000002140356     0.000000896819
2041-09-21T13:05:32.94168851   141209525.270810   -47237196.124916   -19623381.121237  10.2107346  25.4956851  11.2621555    -0.000005531758     0.000001850670     0.000000768807
2041-09-24T22:10:28.00996253   143952785.744787   -39720466.833084   -16305105.116010   8.5804191  25.9928966  11.4675889    -0.000005635701     0.000001555235     0.000000638416
2041-09-28T07:17:46.10810081   146216992.413253   -32067484.753128   -12930784.049987   6.9216733  26.4033307  11.6347393    -0.000005720942     0.000001254876     0.000000506011
2041-10-01T16:25:04.20623925   147993416.169219   -24307506.010081    -9513318.012706   5.2408013  26.7254700  11.7629900    -0.000005787197     0.000000950720     0.000000372088
2041-10-05T01:32:22.30437753   149276408.145870   -16466463.796574    -6064125.680281   3.5433747  26.9583505  11.8519614    -0.000005834292     0.000000643759     0.000000237083
2041-10-08T10:39:40.40251597   150061951.892751    -8570530.696032    -2594718.056893   1.8350065  27.1012985  11.9014018    -0.000005862116     0.000000334990     0.000000101434
2041-10-11T19:21:05.35730580   150347479.709217     -688207.191228      864839.257237   0.1304514  27.1538906  11.9112398    -0.000005870623     0.000000027057    -0.000000033697
2041-10-15T04:02:30.31209562   150137769.738192     7196400.625894     4321554.710358  -1.5737984  27.1170348  11.8818465    -0.000005860020    -0.000000280700    -0.000000168603
2041-10-18T12:43:55.26688545   149433716.672571    15057330.841486     7764047.831385  -3.2721996  26.9909244  11.8133497    -0.000005830371    -0.000000587302    -0.000000302855
2041-10-21T21:25:20.22167528   148237820.849956    22868718.428941    11180993.111960  -4.9592364  26.7760358  11.7060013    -0.000005781800    -0.000000891780    -0.000000436028
2041-10-25T05:54:59.80439212   146558854.781870    30586204.273028    14553001.860633  -6.6254053  26.4739669  11.5605759    -0.000005714669    -0.000001192447    -0.000000567386
2041-10-28T14:24:39.38710880   144400144.105664    38203585.714094    17877379.280781  -8.2694459  26.0853295  11.3773515    -0.000005629118    -0.000001489103    -0.000000696840
2041-10-31T22:54:18.96982548   141768871.145847    45695958.670834    21143257.704227  -9.8860603  25.6114209  11.1569385    -0.000005525432    -0.000001780818    -0.000000823988
2041-11-04T07:23:58.55254216   138673739.769402    53038833.128356    24339962.893535 -11.4700417  25.0538052  10.9000631    -0.000005403952    -0.000002066682    -0.000000948430
2041-11-07T16:10:22.91945693   135111867.324401    60232740.896734    27467705.746707 -13.0215790  24.4119502  10.6064907    -0.000005264558    -0.000002346757    -0.000001070194
2041-11-11T00:56:47.28637169   131104967.517539    67228271.373342    30504982.352992 -14.5300888  23.6897487  10.2780107    -0.000005108089    -0.000002619158    -0.000001188460
2041-11-14T09:43:11.65328646   126666267.465148    74002397.897917    33441795.448288 -15.9906770  22.8895570   9.9156947    -0.000004935044    -0.000002883028    -0.000001302855
2041-11-17T18:29:36.02020122   121810394.875297    80532814.180111    36268474.610444 -17.3986020  22.0139776   9.5207210    -0.000004745969    -0.000003137534    -0.000001413019
2041-11-21T03:17:39.80495599   116551469.079487    86800100.605582    38976611.626690 -18.7497397  21.0655148   9.0942200    -0.000004541389    -0.000003381954    -0.000001518638
2041-11-24T12:05:43.58971092   110908385.354033    92781305.604660    41556286.170637 -20.0391993  20.0475283   8.6377034    -0.000004322006    -0.000003615424    -0.000001619340
2041-11-27T20:53:47.37446585   104899701.798929    98456680.123947    43998979.987132 -21.2627738  18.9633123   8.1526487    -0.000004088508    -0.000003837200    -0.000001714802
